{
  "type": "FeatureCollection",
  "features": [
    {
      "type": "Feature",
      "properties": {
        "norad_id": 67096,
        "name": "STARLINK-36228",
        "group": "last-30-days",
        "lat": 0.9035787216461446,
        "lon": 29.60004588372015,
        "alt_km": 347.66435723988616,
        "timestamp": "2025-12-26T19:22:37.609180+00:00",
        "meta_object_name": "STARLINK-36228",
        "meta_object_id": "2025-298X",
        "meta_epoch": "2025-12-26T14:00:04.000032",
        "meta_mean_motion": 15.75652924,
        "meta_eccentricity": 0.00040111,
        "meta_inclination": 69.9996,
        "meta_ra_of_asc_node": 210.5636,
        "meta_arg_of_pericenter": 270.8635,
        "meta_mean_anomaly": 78.2206,
        "meta_ephemeris_type": 0,
        "meta_classification_type": "U",
        "meta_norad_cat_id": 67096,
        "meta_element_set_no": 999,
        "meta_rev_at_epoch": 314,
        "meta_bstar": -0.012589981,
        "meta_mean_motion_dot": -0.01709038,
        "meta_mean_motion_ddot": 0,
        "tle_line1": "1 67096U 25298X   25360.58337963 -.01709038  00000+0 -12590-1 0  9991",
        "tle_line2": "2 67096  69.9996 210.5636 0004011 270.8635  78.2206 15.75652924  3147"
      },
      "geometry": {
        "type": "Point",
        "coordinates": [
          29.60004588372015,
          0.9035787216461446
        ]
      }
    },
    {
      "type": "Feature",
      "properties": {
        "norad_id": 67097,
        "name": "STARLINK-36222",
        "group": "last-30-days",
        "lat": -0.9616481186577627,
        "lon": 30.276908130220228,
        "alt_km": 347.7156916411441,
        "timestamp": "2025-12-26T19:22:37.609194+00:00",
        "meta_object_name": "STARLINK-36222",
        "meta_object_id": "2025-298Y",
        "meta_epoch": "2025-12-26T14:00:04.000032",
        "meta_mean_motion": 15.75651543,
        "meta_eccentricity": 0.00039496,
        "meta_inclination": 69.9994,
        "meta_ra_of_asc_node": 210.561,
        "meta_arg_of_pericenter": 268.4483,
        "meta_mean_anomaly": 82.6216,
        "meta_ephemeris_type": 0,
        "meta_classification_type": "U",
        "meta_norad_cat_id": 67097,
        "meta_element_set_no": 999,
        "meta_rev_at_epoch": 314,
        "meta_bstar": -0.012619856,
        "meta_mean_motion_dot": -0.01712471,
        "meta_mean_motion_ddot": 0,
        "tle_line1": "1 67097U 25298Y   25360.58337963 -.01712471  00000+0 -12620-1 0  9991",
        "tle_line2": "2 67097  69.9994 210.5610 0003949 268.4483  82.6216 15.75651543  3147"
      },
      "geometry": {
        "type": "Point",
        "coordinates": [
          30.276908130220228,
          -0.9616481186577627
        ]
      }
    },
    {
      "type": "Feature",
      "properties": {
        "norad_id": 67098,
        "name": "STARLINK-36205",
        "group": "last-30-days",
        "lat": -2.9390507013365386,
        "lon": 30.9954033439824,
        "alt_km": 347.87043689479924,
        "timestamp": "2025-12-26T19:22:37.609204+00:00",
        "meta_object_name": "STARLINK-36205",
        "meta_object_id": "2025-298Z",
        "meta_epoch": "2025-12-26T14:00:04.000032",
        "meta_mean_motion": 15.7564248,
        "meta_eccentricity": 0.00037919,
        "meta_inclination": 69.9975,
        "meta_ra_of_asc_node": 210.5582,
        "meta_arg_of_pericenter": 267.4253,
        "meta_mean_anomaly": 85.7553,
        "meta_ephemeris_type": 0,
        "meta_classification_type": "U",
        "meta_norad_cat_id": 67098,
        "meta_element_set_no": 999,
        "meta_rev_at_epoch": 320,
        "meta_bstar": -0.012667411,
        "meta_mean_motion_dot": -0.01717413,
        "meta_mean_motion_ddot": 0,
        "tle_line1": "1 67098U 25298Z   25360.58337963 -.01717413  00000+0 -12667-1 0  9994",
        "tle_line2": "2 67098  69.9975 210.5582 0003791 267.4253  85.7553 15.75642480  3209"
      },
      "geometry": {
        "type": "Point",
        "coordinates": [
          30.9954033439824,
          -2.9390507013365386
        ]
      }
    },
    {
      "type": "Feature",
      "properties": {
        "norad_id": 67099,
        "name": "STARLINK-36193",
        "group": "last-30-days",
        "lat": 11.709898643617374,
        "lon": 25.613098190443356,
        "alt_km": 357.8174584879962,
        "timestamp": "2025-12-26T19:22:37.609214+00:00",
        "meta_object_name": "STARLINK-36193",
        "meta_object_id": "2025-298AA",
        "meta_epoch": "2025-12-26T14:00:04.000032",
        "meta_mean_motion": 15.71998583,
        "meta_eccentricity": 0.00038048,
        "meta_inclination": 69.9987,
        "meta_ra_of_asc_node": 210.5739,
        "meta_arg_of_pericenter": 265.1516,
        "meta_mean_anomaly": 75.5155,
        "meta_ephemeris_type": 0,
        "meta_classification_type": "U",
        "meta_norad_cat_id": 67099,
        "meta_element_set_no": 999,
        "meta_rev_at_epoch": 314,
        "meta_bstar": -0.021255298,
        "meta_mean_motion_dot": -0.02397518,
        "meta_mean_motion_ddot": 0,
        "tle_line1": "1 67099U 25298AA  25360.58337963 -.02397518  00000+0 -21255-1 0  9999",
        "tle_line2": "2 67099  69.9987 210.5739 0003804 265.1516  75.5155 15.71998583  3141"
      },
      "geometry": {
        "type": "Point",
        "coordinates": [
          25.613098190443356,
          11.709898643617374
        ]
      }
    },
    {
      "type": "Feature",
      "properties": {
        "norad_id": 67100,
        "name": "STARLINK-36215",
        "group": "last-30-days",
        "lat": -8.127421002212829,
        "lon": 32.89925843557501,
        "alt_km": 348.31842595463513,
        "timestamp": "2025-12-26T19:22:37.609225+00:00",
        "meta_object_name": "STARLINK-36215",
        "meta_object_id": "2025-298AB",
        "meta_epoch": "2025-12-26T14:00:04.000032",
        "meta_mean_motion": 15.75653028,
        "meta_eccentricity": 0.00037781,
        "meta_inclination": 69.9971,
        "meta_ra_of_asc_node": 210.5516,
        "meta_arg_of_pericenter": 269.4827,
        "meta_mean_anomaly": 89.2147,
        "meta_ephemeris_type": 0,
        "meta_classification_type": "U",
        "meta_norad_cat_id": 67100,
        "meta_element_set_no": 999,
        "meta_rev_at_epoch": 320,
        "meta_bstar": -0.012667066,
        "meta_mean_motion_dot": -0.01718065,
        "meta_mean_motion_ddot": 0,
        "tle_line1": "1 67100U 25298AB  25360.58337963 -.01718065  00000+0 -12667-1 0  9992",
        "tle_line2": "2 67100  69.9971 210.5516 0003778 269.4827  89.2147 15.75653028  3208"
      },
      "geometry": {
        "type": "Point",
        "coordinates": [
          32.89925843557501,
          -8.127421002212829
        ]
      }
    },
    {
      "type": "Feature",
      "properties": {
        "norad_id": 67101,
        "name": "STARLINK-36200",
        "group": "last-30-days",
        "lat": -4.628806163518617,
        "lon": 31.612367980606802,
        "alt_km": 348.0172850721274,
        "timestamp": "2025-12-26T19:22:37.609237+00:00",
        "meta_object_name": "STARLINK-36200",
        "meta_object_id": "2025-298AC",
        "meta_epoch": "2025-12-26T14:00:04.000032",
        "meta_mean_motion": 15.75645804,
        "meta_eccentricity": 0.00036877,
        "meta_inclination": 69.9976,
        "meta_ra_of_asc_node": 210.5567,
        "meta_arg_of_pericenter": 267.8565,
        "meta_mean_anomaly": 87.1184,
        "meta_ephemeris_type": 0,
        "meta_classification_type": "U",
        "meta_norad_cat_id": 67101,
        "meta_element_set_no": 999,
        "meta_rev_at_epoch": 320,
        "meta_bstar": -0.012647343,
        "meta_mean_motion_dot": -0.01715128,
        "meta_mean_motion_ddot": 0,
        "tle_line1": "1 67101U 25298AC  25360.58337963 -.01715128  00000+0 -12647-1 0  9998",
        "tle_line2": "2 67101  69.9976 210.5567 0003687 267.8565  87.1184 15.75645804  3201"
      },
      "geometry": {
        "type": "Point",
        "coordinates": [
          31.612367980606802,
          -4.628806163518617
        ]
      }
    },
    {
      "type": "Feature",
      "properties": {
        "norad_id": 67102,
        "name": "STARLINK-36255",
        "group": "last-30-days",
        "lat": 42.88349413995105,
        "lon": -44.147443638809705,
        "alt_km": 331.37797165110624,
        "timestamp": "2025-12-26T19:22:37.609247+00:00",
        "meta_object_name": "STARLINK-36255",
        "meta_object_id": "2025-299A",
        "meta_epoch": "2025-12-26T14:00:04.000032",
        "meta_mean_motion": 15.78563583,
        "meta_eccentricity": 0.0001551,
        "meta_inclination": 42.9974,
        "meta_ra_of_asc_node": 231.838,
        "meta_arg_of_pericenter": 263.9877,
        "meta_mean_anomaly": 348.4714,
        "meta_ephemeris_type": 0,
        "meta_classification_type": "U",
        "meta_norad_cat_id": 67102,
        "meta_element_set_no": 999,
        "meta_rev_at_epoch": 303,
        "meta_bstar": -0.011160771,
        "meta_mean_motion_dot": -0.01766014,
        "meta_mean_motion_ddot": 0,
        "tle_line1": "1 67102U 25299A   25360.58337963 -.01766014  00000+0 -11161-1 0  9990",
        "tle_line2": "2 67102  42.9974 231.8380 0001551 263.9877 348.4714 15.78563583  3030"
      },
      "geometry": {
        "type": "Point",
        "coordinates": [
          -44.147443638809705,
          42.88349413995105
        ]
      }
    }
  ]
}